[{"OBJECT_NAME":"YAOGAN-43 01H","OBJECT_ID":"2024-148H","EPOCH":"2026-03-10T00:13:57.702432","MEAN_MOTION":15.25826805,"ECCENTRICITY":0.000635,"INCLINATION":34.994,"RA_OF_ASC_NODE":64.6147,"ARG_OF_PERICENTER":359.2394,"MEAN_ANOMALY":0.8311,"EPHEMERIS_TYPE":0,"CLASSIFICATION_TYPE":"U","NORAD_CAT_ID":60465,"ELEMENT_SET_NO":999,"REV_AT_EPOCH":8702,"BSTAR":0.00039232254,"MEAN_MOTION_DOT":0.00010268,"MEAN_MOTION_DDOT":0},{"OBJECT_NAME":"STARLINK-35334","OBJECT_ID":"2025-259AE","EPOCH":"2026-03-09T22:03:24.687072","MEAN_MOTION":15.27610025,"ECCENTRICITY":8.424e-5,"INCLINATION":42.9981,"RA_OF_ASC_NODE":273.2768,"ARG_OF_PERICENTER":296.888,"MEAN_ANOMALY":63.1885,"EPHEMERIS_TYPE":0,"CLASSIFICATION_TYPE":"U","NORAD_CAT_ID":66450,"ELEMENT_SET_NO":999,"REV_AT_EPOCH":1952,"BSTAR":0.0014350695,"MEAN_MOTION_DOT":0.00039476,"MEAN_MOTION_DDOT":0}]
